{
"type": "FeatureCollection",
"name": "osm_trees",
"crs": { "type": "name", "properties": { "name": "urn:ogc:def:crs:OGC:1.3:CRS84" } },
"features": [
{ "type": "Feature", "properties": { "canopy_radius_m": 6.0, "height_m": null }, "geometry": { "type": "Point", "coordinates": [ -73.9905527, 40.6496052 ] } },
{ "type": "Feature", "properties": { "canopy_radius_m": 6.0, "height_m": null }, "geometry": { "type": "Point", "coordinates": [ -73.9966852, 40.6547098 ] } },
{ "type": "Feature", "properties": { "canopy_radius_m": 6.0, "height_m": null }, "geometry": { "type": "Point", "coordinates": [ -73.9962744, 40.65434 ] } },
{ "type": "Feature", "properties": { "canopy_radius_m": 6.0, "height_m": null }, "geometry": { "type": "Point", "coordinates": [ -73.9960865, 40.6543506 ] } },
{ "type": "Feature", "properties": { "canopy_radius_m": 6.0, "height_m": null }, "geometry": { "type": "Point", "coordinates": [ -73.996088, 40.6542092 ] } },
{ "type": "Feature", "properties": { "canopy_radius_m": 6.0, "height_m": null }, "geometry": { "type": "Point", "coordinates": [ -73.9958588, 40.6542037 ] } },
{ "type": "Feature", "properties": { "canopy_radius_m": 6.0, "height_m": null }, "geometry": { "type": "Point", "coordinates": [ -73.9959541, 40.6543652 ] } },
{ "type": "Feature", "properties": { "canopy_radius_m": 6.0, "height_m": null }, "geometry": { "type": "Point", "coordinates": [ -73.9964733, 40.6537065 ] } },
{ "type": "Feature", "properties": { "canopy_radius_m": 6.0, "height_m": null }, "geometry": { "type": "Point", "coordinates": [ -73.990804, 40.6537198 ] } },
{ "type": "Feature", "properties": { "canopy_radius_m": 6.0, "height_m": null }, "geometry": { "type": "Point", "coordinates": [ -73.9893916, 40.6542803 ] } },
{ "type": "Feature", "properties": { "canopy_radius_m": 6.0, "height_m": null }, "geometry": { "type": "Point", "coordinates": [ -73.9902608, 40.6550086 ] } },
{ "type": "Feature", "properties": { "canopy_radius_m": 6.0, "height_m": null }, "geometry": { "type": "Point", "coordinates": [ -73.9909344, 40.6555349 ] } },
{ "type": "Feature", "properties": { "canopy_radius_m": 6.0, "height_m": null }, "geometry": { "type": "Point", "coordinates": [ -73.99077, 40.6556475 ] } },
{ "type": "Feature", "properties": { "canopy_radius_m": 6.0, "height_m": null }, "geometry": { "type": "Point", "coordinates": [ -73.9911272, 40.6558207 ] } },
{ "type": "Feature", "properties": { "canopy_radius_m": 6.0, "height_m": null }, "geometry": { "type": "Point", "coordinates": [ -73.991712, 40.6560696 ] } },
{ "type": "Feature", "properties": { "canopy_radius_m": 6.0, "height_m": null }, "geometry": { "type": "Point", "coordinates": [ -73.9921505, 40.6584209 ] } },
{ "type": "Feature", "properties": { "canopy_radius_m": 6.0, "height_m": null }, "geometry": { "type": "Point", "coordinates": [ -73.9911904, 40.6578399 ] } },
{ "type": "Feature", "properties": { "canopy_radius_m": 6.0, "height_m": null }, "geometry": { "type": "Point", "coordinates": [ -73.9907866, 40.6574147 ] } },
{ "type": "Feature", "properties": { "canopy_radius_m": 6.0, "height_m": null }, "geometry": { "type": "Point", "coordinates": [ -73.9904543, 40.6573589 ] } },
{ "type": "Feature", "properties": { "canopy_radius_m": 6.0, "height_m": null }, "geometry": { "type": "Point", "coordinates": [ -73.9904238, 40.6572826 ] } },
{ "type": "Feature", "properties": { "canopy_radius_m": 6.0, "height_m": null }, "geometry": { "type": "Point", "coordinates": [ -73.9904974, 40.6572195 ] } },
{ "type": "Feature", "properties": { "canopy_radius_m": 6.0, "height_m": null }, "geometry": { "type": "Point", "coordinates": [ -73.9906514, 40.6571995 ] } },
{ "type": "Feature", "properties": { "canopy_radius_m": 6.0, "height_m": null }, "geometry": { "type": "Point", "coordinates": [ -73.9887853, 40.6575773 ] } },
{ "type": "Feature", "properties": { "canopy_radius_m": 6.0, "height_m": null }, "geometry": { "type": "Point", "coordinates": [ -73.9886771, 40.6575263 ] } },
{ "type": "Feature", "properties": { "canopy_radius_m": 6.0, "height_m": null }, "geometry": { "type": "Point", "coordinates": [ -73.9878703, 40.6575573 ] } },
{ "type": "Feature", "properties": { "canopy_radius_m": 6.0, "height_m": null }, "geometry": { "type": "Point", "coordinates": [ -73.98735, 40.6574289 ] } },
{ "type": "Feature", "properties": { "canopy_radius_m": 6.0, "height_m": null }, "geometry": { "type": "Point", "coordinates": [ -73.9876206, 40.6573252 ] } },
{ "type": "Feature", "properties": { "canopy_radius_m": 6.0, "height_m": null }, "geometry": { "type": "Point", "coordinates": [ -73.9877246, 40.6571284 ] } },
{ "type": "Feature", "properties": { "canopy_radius_m": 6.0, "height_m": null }, "geometry": { "type": "Point", "coordinates": [ -73.9872259, 40.6567332 ] } },
{ "type": "Feature", "properties": { "canopy_radius_m": 6.0, "height_m": null }, "geometry": { "type": "Point", "coordinates": [ -73.9869574, 40.6568732 ] } },
{ "type": "Feature", "properties": { "canopy_radius_m": 6.0, "height_m": null }, "geometry": { "type": "Point", "coordinates": [ -73.987119, 40.6569006 ] } },
{ "type": "Feature", "properties": { "canopy_radius_m": 6.0, "height_m": null }, "geometry": { "type": "Point", "coordinates": [ -73.9873382, 40.6569085 ] } },
{ "type": "Feature", "properties": { "canopy_radius_m": 6.0, "height_m": null }, "geometry": { "type": "Point", "coordinates": [ -73.9867978, 40.6561133 ] } },
{ "type": "Feature", "properties": { "canopy_radius_m": 6.0, "height_m": null }, "geometry": { "type": "Point", "coordinates": [ -73.9866029, 40.6560949 ] } },
{ "type": "Feature", "properties": { "canopy_radius_m": 6.0, "height_m": null }, "geometry": { "type": "Point", "coordinates": [ -73.9863469, 40.6561843 ] } },
{ "type": "Feature", "properties": { "canopy_radius_m": 6.0, "height_m": null }, "geometry": { "type": "Point", "coordinates": [ -73.9860889, 40.6560812 ] } },
{ "type": "Feature", "properties": { "canopy_radius_m": 6.0, "height_m": null }, "geometry": { "type": "Point", "coordinates": [ -73.9865599, 40.6554212 ] } },
{ "type": "Feature", "properties": { "canopy_radius_m": 6.0, "height_m": null }, "geometry": { "type": "Point", "coordinates": [ -73.9861686, 40.6554191 ] } },
{ "type": "Feature", "properties": { "canopy_radius_m": 6.0, "height_m": null }, "geometry": { "type": "Point", "coordinates": [ -73.9860715, 40.6552839 ] } },
{ "type": "Feature", "properties": { "canopy_radius_m": 6.0, "height_m": null }, "geometry": { "type": "Point", "coordinates": [ -73.9859106, 40.6553239 ] } },
{ "type": "Feature", "properties": { "canopy_radius_m": 6.0, "height_m": null }, "geometry": { "type": "Point", "coordinates": [ -73.9861666, 40.6551049 ] } },
{ "type": "Feature", "properties": { "canopy_radius_m": 6.0, "height_m": null }, "geometry": { "type": "Point", "coordinates": [ -73.9841625, 40.6548207 ] } },
{ "type": "Feature", "properties": { "canopy_radius_m": 6.0, "height_m": null }, "geometry": { "type": "Point", "coordinates": [ -73.9844719, 40.6546302 ] } },
{ "type": "Feature", "properties": { "canopy_radius_m": 6.0, "height_m": null }, "geometry": { "type": "Point", "coordinates": [ -73.9844372, 40.6547555 ] } },
{ "type": "Feature", "properties": { "canopy_radius_m": 6.0, "height_m": null }, "geometry": { "type": "Point", "coordinates": [ -73.9841396, 40.6547081 ] } },
{ "type": "Feature", "properties": { "canopy_radius_m": 6.0, "height_m": null }, "geometry": { "type": "Point", "coordinates": [ -73.9827813, 40.654355 ] } },
{ "type": "Feature", "properties": { "canopy_radius_m": 6.0, "height_m": null }, "geometry": { "type": "Point", "coordinates": [ -73.9825995, 40.6539829 ] } },
{ "type": "Feature", "properties": { "canopy_radius_m": 6.0, "height_m": null }, "geometry": { "type": "Point", "coordinates": [ -73.9827931, 40.6536813 ] } },
{ "type": "Feature", "properties": { "canopy_radius_m": 6.0, "height_m": null }, "geometry": { "type": "Point", "coordinates": [ -73.9827307, 40.6525898 ] } },
{ "type": "Feature", "properties": { "canopy_radius_m": 6.0, "height_m": null }, "geometry": { "type": "Point", "coordinates": [ -73.9826002, 40.6527098 ] } },
{ "type": "Feature", "properties": { "canopy_radius_m": 6.0, "height_m": null }, "geometry": { "type": "Point", "coordinates": [ -73.9823727, 40.6528061 ] } },
{ "type": "Feature", "properties": { "canopy_radius_m": 6.0, "height_m": null }, "geometry": { "type": "Point", "coordinates": [ -73.9825836, 40.6524414 ] } },
{ "type": "Feature", "properties": { "canopy_radius_m": 6.0, "height_m": null }, "geometry": { "type": "Point", "coordinates": [ -73.9826384, 40.6523135 ] } },
{ "type": "Feature", "properties": { "canopy_radius_m": 6.0, "height_m": null }, "geometry": { "type": "Point", "coordinates": [ -73.9829353, 40.6524604 ] } },
{ "type": "Feature", "properties": { "canopy_radius_m": 6.0, "height_m": null }, "geometry": { "type": "Point", "coordinates": [ -73.9825336, 40.6519214 ] } },
{ "type": "Feature", "properties": { "canopy_radius_m": 6.0, "height_m": null }, "geometry": { "type": "Point", "coordinates": [ -73.9828007, 40.6516935 ] } },
{ "type": "Feature", "properties": { "canopy_radius_m": 6.0, "height_m": null }, "geometry": { "type": "Point", "coordinates": [ -73.9829998, 40.6518398 ] } },
{ "type": "Feature", "properties": { "canopy_radius_m": 6.0, "height_m": null }, "geometry": { "type": "Point", "coordinates": [ -73.9835964, 40.6519704 ] } },
{ "type": "Feature", "properties": { "canopy_radius_m": 6.0, "height_m": null }, "geometry": { "type": "Point", "coordinates": [ -73.984356, 40.6522535 ] } },
{ "type": "Feature", "properties": { "canopy_radius_m": 6.0, "height_m": null }, "geometry": { "type": "Point", "coordinates": [ -73.9842193, 40.6523209 ] } },
{ "type": "Feature", "properties": { "canopy_radius_m": 6.0, "height_m": null }, "geometry": { "type": "Point", "coordinates": [ -73.9834188, 40.6523988 ] } },
{ "type": "Feature", "properties": { "canopy_radius_m": 6.0, "height_m": null }, "geometry": { "type": "Point", "coordinates": [ -73.9833002, 40.6521783 ] } },
{ "type": "Feature", "properties": { "canopy_radius_m": 6.0, "height_m": null }, "geometry": { "type": "Point", "coordinates": [ -73.9830172, 40.6520367 ] } },
{ "type": "Feature", "properties": { "canopy_radius_m": 6.0, "height_m": null }, "geometry": { "type": "Point", "coordinates": [ -73.9821452, 40.6516325 ] } },
{ "type": "Feature", "properties": { "canopy_radius_m": 6.0, "height_m": null }, "geometry": { "type": "Point", "coordinates": [ -73.9823248, 40.6514725 ] } },
{ "type": "Feature", "properties": { "canopy_radius_m": 6.0, "height_m": null }, "geometry": { "type": "Point", "coordinates": [ -73.9825094, 40.651712 ] } },
{ "type": "Feature", "properties": { "canopy_radius_m": 6.0, "height_m": null }, "geometry": { "type": "Point", "coordinates": [ -73.9813946, 40.6513062 ] } },
{ "type": "Feature", "properties": { "canopy_radius_m": 6.0, "height_m": null }, "geometry": { "type": "Point", "coordinates": [ -73.9813363, 40.650902 ] } },
{ "type": "Feature", "properties": { "canopy_radius_m": 6.0, "height_m": null }, "geometry": { "type": "Point", "coordinates": [ -73.9815465, 40.6500394 ] } },
{ "type": "Feature", "properties": { "canopy_radius_m": 6.0, "height_m": null }, "geometry": { "type": "Point", "coordinates": [ -73.9823151, 40.650203 ] } },
{ "type": "Feature", "properties": { "canopy_radius_m": 6.0, "height_m": null }, "geometry": { "type": "Point", "coordinates": [ -73.9909618, 40.6475277 ] } },
{ "type": "Feature", "properties": { "canopy_radius_m": 6.0, "height_m": null }, "geometry": { "type": "Point", "coordinates": [ -73.9887302, 40.6470216 ] } },
{ "type": "Feature", "properties": { "canopy_radius_m": 6.0, "height_m": null }, "geometry": { "type": "Point", "coordinates": [ -73.990906, 40.65259 ] } },
{ "type": "Feature", "properties": { "canopy_radius_m": 6.0, "height_m": null }, "geometry": { "type": "Point", "coordinates": [ -73.9918588, 40.6527185 ] } },
{ "type": "Feature", "properties": { "canopy_radius_m": 6.0, "height_m": null }, "geometry": { "type": "Point", "coordinates": [ -73.9915295, 40.6527019 ] } },
{ "type": "Feature", "properties": { "canopy_radius_m": 6.0, "height_m": null }, "geometry": { "type": "Point", "coordinates": [ -73.9925646, 40.6536892 ] } },
{ "type": "Feature", "properties": { "canopy_radius_m": 6.0, "height_m": null }, "geometry": { "type": "Point", "coordinates": [ -73.9886648, 40.657676 ] } },
{ "type": "Feature", "properties": { "canopy_radius_m": 6.0, "height_m": null }, "geometry": { "type": "Point", "coordinates": [ -73.9886825, 40.6577704 ] } },
{ "type": "Feature", "properties": { "canopy_radius_m": 6.0, "height_m": null }, "geometry": { "type": "Point", "coordinates": [ -73.9887295, 40.6578372 ] } },
{ "type": "Feature", "properties": { "canopy_radius_m": 6.0, "height_m": null }, "geometry": { "type": "Point", "coordinates": [ -73.9886329, 40.6580522 ] } },
{ "type": "Feature", "properties": { "canopy_radius_m": 6.0, "height_m": null }, "geometry": { "type": "Point", "coordinates": [ -73.9884081, 40.658006 ] } },
{ "type": "Feature", "properties": { "canopy_radius_m": 6.0, "height_m": null }, "geometry": { "type": "Point", "coordinates": [ -73.9880859, 40.6582339 ] } },
{ "type": "Feature", "properties": { "canopy_radius_m": 6.0, "height_m": null }, "geometry": { "type": "Point", "coordinates": [ -73.9870889, 40.6582079 ] } },
{ "type": "Feature", "properties": { "canopy_radius_m": 6.0, "height_m": null }, "geometry": { "type": "Point", "coordinates": [ -73.9856213, 40.6559905 ] } },
{ "type": "Feature", "properties": { "canopy_radius_m": 6.0, "height_m": null }, "geometry": { "type": "Point", "coordinates": [ -73.9851532, 40.6557692 ] } },
{ "type": "Feature", "properties": { "canopy_radius_m": 6.0, "height_m": null }, "geometry": { "type": "Point", "coordinates": [ -73.9848063, 40.6554686 ] } },
{ "type": "Feature", "properties": { "canopy_radius_m": 6.0, "height_m": null }, "geometry": { "type": "Point", "coordinates": [ -73.9849044, 40.6554775 ] } },
{ "type": "Feature", "properties": { "canopy_radius_m": 6.0, "height_m": null }, "geometry": { "type": "Point", "coordinates": [ -73.9840318, 40.6551264 ] } },
{ "type": "Feature", "properties": { "canopy_radius_m": 6.0, "height_m": null }, "geometry": { "type": "Point", "coordinates": [ -73.9838642, 40.6552245 ] } },
{ "type": "Feature", "properties": { "canopy_radius_m": 6.0, "height_m": null }, "geometry": { "type": "Point", "coordinates": [ -73.9949675, 40.6509802 ] } },
{ "type": "Feature", "properties": { "canopy_radius_m": 6.0, "height_m": null }, "geometry": { "type": "Point", "coordinates": [ -73.9909046, 40.6575501 ] } },
{ "type": "Feature", "properties": { "canopy_radius_m": 6.0, "height_m": null }, "geometry": { "type": "Point", "coordinates": [ -73.992993, 40.6470762 ] } },
{ "type": "Feature", "properties": { "canopy_radius_m": 6.0, "height_m": null }, "geometry": { "type": "Point", "coordinates": [ -73.9880916, 40.6452246 ] } },
{ "type": "Feature", "properties": { "canopy_radius_m": 6.0, "height_m": null }, "geometry": { "type": "Point", "coordinates": [ -73.9872853, 40.6454305 ] } },
{ "type": "Feature", "properties": { "canopy_radius_m": 6.0, "height_m": null }, "geometry": { "type": "Point", "coordinates": [ -73.9862561, 40.6460258 ] } },
{ "type": "Feature", "properties": { "canopy_radius_m": 6.0, "height_m": null }, "geometry": { "type": "Point", "coordinates": [ -73.9862708, 40.6467844 ] } },
{ "type": "Feature", "properties": { "canopy_radius_m": 6.0, "height_m": null }, "geometry": { "type": "Point", "coordinates": [ -73.9855382, 40.6472603 ] } },
{ "type": "Feature", "properties": { "canopy_radius_m": 6.0, "height_m": null }, "geometry": { "type": "Point", "coordinates": [ -73.9890859, 40.650606 ] } },
{ "type": "Feature", "properties": { "canopy_radius_m": 6.0, "height_m": null }, "geometry": { "type": "Point", "coordinates": [ -73.9892599, 40.651015 ] } },
{ "type": "Feature", "properties": { "canopy_radius_m": 6.0, "height_m": null }, "geometry": { "type": "Point", "coordinates": [ -73.995522, 40.6549312 ] } },
{ "type": "Feature", "properties": { "canopy_radius_m": 6.0, "height_m": null }, "geometry": { "type": "Point", "coordinates": [ -73.9888418, 40.6493924 ] } },
{ "type": "Feature", "properties": { "canopy_radius_m": 6.0, "height_m": null }, "geometry": { "type": "Point", "coordinates": [ -73.9861709, 40.6500318 ] } },
{ "type": "Feature", "properties": { "canopy_radius_m": 6.0, "height_m": null }, "geometry": { "type": "Point", "coordinates": [ -73.9860243, 40.6499661 ] } },
{ "type": "Feature", "properties": { "canopy_radius_m": 6.0, "height_m": null }, "geometry": { "type": "Point", "coordinates": [ -73.9858771, 40.6501705 ] } },
{ "type": "Feature", "properties": { "canopy_radius_m": 6.0, "height_m": null }, "geometry": { "type": "Point", "coordinates": [ -73.9856434, 40.6501351 ] } },
{ "type": "Feature", "properties": { "canopy_radius_m": 6.0, "height_m": null }, "geometry": { "type": "Point", "coordinates": [ -73.984874, 40.6508231 ] } },
{ "type": "Feature", "properties": { "canopy_radius_m": 6.0, "height_m": null }, "geometry": { "type": "Point", "coordinates": [ -73.9848215, 40.6510324 ] } },
{ "type": "Feature", "properties": { "canopy_radius_m": 6.0, "height_m": null }, "geometry": { "type": "Point", "coordinates": [ -73.9849203, 40.6513097 ] } },
{ "type": "Feature", "properties": { "canopy_radius_m": 6.0, "height_m": null }, "geometry": { "type": "Point", "coordinates": [ -73.9849118, 40.6514734 ] } },
{ "type": "Feature", "properties": { "canopy_radius_m": 6.0, "height_m": null }, "geometry": { "type": "Point", "coordinates": [ -73.9881106, 40.6473703 ] } },
{ "type": "Feature", "properties": { "canopy_radius_m": 6.0, "height_m": null }, "geometry": { "type": "Point", "coordinates": [ -73.9884311, 40.6473455 ] } },
{ "type": "Feature", "properties": { "canopy_radius_m": 6.0, "height_m": null }, "geometry": { "type": "Point", "coordinates": [ -73.9893701, 40.647598 ] } },
{ "type": "Feature", "properties": { "canopy_radius_m": 6.0, "height_m": null }, "geometry": { "type": "Point", "coordinates": [ -73.9892236, 40.6475188 ] } },
{ "type": "Feature", "properties": { "canopy_radius_m": 6.0, "height_m": null }, "geometry": { "type": "Point", "coordinates": [ -73.9889981, 40.6458612 ] } },
{ "type": "Feature", "properties": { "canopy_radius_m": 6.0, "height_m": null }, "geometry": { "type": "Point", "coordinates": [ -73.9889938, 40.6457209 ] } },
{ "type": "Feature", "properties": { "canopy_radius_m": 6.0, "height_m": null }, "geometry": { "type": "Point", "coordinates": [ -73.9885993, 40.64507 ] } },
{ "type": "Feature", "properties": { "canopy_radius_m": 6.0, "height_m": null }, "geometry": { "type": "Point", "coordinates": [ -73.9883876, 40.6449694 ] } },
{ "type": "Feature", "properties": { "canopy_radius_m": 6.0, "height_m": null }, "geometry": { "type": "Point", "coordinates": [ -73.9885348, 40.6448951 ] } },
{ "type": "Feature", "properties": { "canopy_radius_m": 6.0, "height_m": null }, "geometry": { "type": "Point", "coordinates": [ -73.9887059, 40.6448527 ] } },
{ "type": "Feature", "properties": { "canopy_radius_m": 6.0, "height_m": null }, "geometry": { "type": "Point", "coordinates": [ -73.9880193, 40.6449424 ] } },
{ "type": "Feature", "properties": { "canopy_radius_m": 6.0, "height_m": null }, "geometry": { "type": "Point", "coordinates": [ -73.9878655, 40.6454101 ] } },
{ "type": "Feature", "properties": { "canopy_radius_m": 6.0, "height_m": null }, "geometry": { "type": "Point", "coordinates": [ -73.9878213, 40.6453385 ] } },
{ "type": "Feature", "properties": { "canopy_radius_m": 6.0, "height_m": null }, "geometry": { "type": "Point", "coordinates": [ -73.9879641, 40.6453325 ] } },
{ "type": "Feature", "properties": { "canopy_radius_m": 6.0, "height_m": null }, "geometry": { "type": "Point", "coordinates": [ -73.9889176, 40.6461946 ] } },
{ "type": "Feature", "properties": { "canopy_radius_m": 6.0, "height_m": null }, "geometry": { "type": "Point", "coordinates": [ -73.9899603, 40.6469808 ] } },
{ "type": "Feature", "properties": { "canopy_radius_m": 6.0, "height_m": null }, "geometry": { "type": "Point", "coordinates": [ -73.9906637, 40.6473152 ] } },
{ "type": "Feature", "properties": { "canopy_radius_m": 6.0, "height_m": null }, "geometry": { "type": "Point", "coordinates": [ -73.9907876, 40.6477807 ] } },
{ "type": "Feature", "properties": { "canopy_radius_m": 6.0, "height_m": null }, "geometry": { "type": "Point", "coordinates": [ -73.9917295, 40.6482934 ] } },
{ "type": "Feature", "properties": { "canopy_radius_m": 6.0, "height_m": null }, "geometry": { "type": "Point", "coordinates": [ -73.9946836, 40.6499878 ] } },
{ "type": "Feature", "properties": { "canopy_radius_m": 6.0, "height_m": null }, "geometry": { "type": "Point", "coordinates": [ -73.9955123, 40.6504923 ] } },
{ "type": "Feature", "properties": { "canopy_radius_m": 6.0, "height_m": null }, "geometry": { "type": "Point", "coordinates": [ -73.9963817, 40.6517262 ] } },
{ "type": "Feature", "properties": { "canopy_radius_m": 6.0, "height_m": null }, "geometry": { "type": "Point", "coordinates": [ -73.9835195, 40.6551167 ] } },
{ "type": "Feature", "properties": { "canopy_radius_m": 6.0, "height_m": null }, "geometry": { "type": "Point", "coordinates": [ -73.983503, 40.6554659 ] } },
{ "type": "Feature", "properties": { "canopy_radius_m": 6.0, "height_m": null }, "geometry": { "type": "Point", "coordinates": [ -73.984201, 40.6561916 ] } },
{ "type": "Feature", "properties": { "canopy_radius_m": 6.0, "height_m": null }, "geometry": { "type": "Point", "coordinates": [ -73.9842025, 40.6562536 ] } },
{ "type": "Feature", "properties": { "canopy_radius_m": 6.0, "height_m": null }, "geometry": { "type": "Point", "coordinates": [ -73.9840123, 40.6562677 ] } },
{ "type": "Feature", "properties": { "canopy_radius_m": 6.0, "height_m": null }, "geometry": { "type": "Point", "coordinates": [ -73.997188, 40.6518439 ] } },
{ "type": "Feature", "properties": { "canopy_radius_m": 6.0, "height_m": null }, "geometry": { "type": "Point", "coordinates": [ -73.9975839, 40.6529931 ] } },
{ "type": "Feature", "properties": { "canopy_radius_m": 6.0, "height_m": null }, "geometry": { "type": "Point", "coordinates": [ -73.9964992, 40.654002 ] } },
{ "type": "Feature", "properties": { "canopy_radius_m": 6.0, "height_m": null }, "geometry": { "type": "Point", "coordinates": [ -73.9884589, 40.6554042 ] } },
{ "type": "Feature", "properties": { "canopy_radius_m": 6.0, "height_m": null }, "geometry": { "type": "Point", "coordinates": [ -73.9883195, 40.6553787 ] } },
{ "type": "Feature", "properties": { "canopy_radius_m": 6.0, "height_m": null }, "geometry": { "type": "Point", "coordinates": [ -73.9855274, 40.6555239 ] } },
{ "type": "Feature", "properties": { "canopy_radius_m": 6.0, "height_m": null }, "geometry": { "type": "Point", "coordinates": [ -73.9851437, 40.6554568 ] } },
{ "type": "Feature", "properties": { "canopy_radius_m": 6.0, "height_m": null }, "geometry": { "type": "Point", "coordinates": [ -73.9872326, 40.6539961 ] } },
{ "type": "Feature", "properties": { "canopy_radius_m": 6.0, "height_m": null }, "geometry": { "type": "Point", "coordinates": [ -73.9873711, 40.6537784 ] } },
{ "type": "Feature", "properties": { "canopy_radius_m": 6.0, "height_m": null }, "geometry": { "type": "Point", "coordinates": [ -73.9939356, 40.6557978 ] } },
{ "type": "Feature", "properties": { "canopy_radius_m": 6.0, "height_m": null }, "geometry": { "type": "Point", "coordinates": [ -73.9960361, 40.6540206 ] } },
{ "type": "Feature", "properties": { "canopy_radius_m": 6.0, "height_m": null }, "geometry": { "type": "Point", "coordinates": [ -73.9958261, 40.6540697 ] } },
{ "type": "Feature", "properties": { "canopy_radius_m": 6.0, "height_m": null }, "geometry": { "type": "Point", "coordinates": [ -73.9939606, 40.649199 ] } },
{ "type": "Feature", "properties": { "canopy_radius_m": 6.0, "height_m": null }, "geometry": { "type": "Point", "coordinates": [ -73.9941562, 40.6487008 ] } },
{ "type": "Feature", "properties": { "canopy_radius_m": 6.0, "height_m": null }, "geometry": { "type": "Point", "coordinates": [ -73.9919642, 40.6472806 ] } },
{ "type": "Feature", "properties": { "canopy_radius_m": 6.0, "height_m": null }, "geometry": { "type": "Point", "coordinates": [ -73.9838618, 40.6553891 ] } },
{ "type": "Feature", "properties": { "canopy_radius_m": 6.0, "height_m": null }, "geometry": { "type": "Point", "coordinates": [ -73.9841122, 40.655423 ] } },
{ "type": "Feature", "properties": { "canopy_radius_m": 6.0, "height_m": null }, "geometry": { "type": "Point", "coordinates": [ -73.9842074, 40.655506 ] } },
{ "type": "Feature", "properties": { "canopy_radius_m": 6.0, "height_m": null }, "geometry": { "type": "Point", "coordinates": [ -73.9882814, 40.6576825 ] } },
{ "type": "Feature", "properties": { "canopy_radius_m": 6.0, "height_m": null }, "geometry": { "type": "Point", "coordinates": [ -73.9881719, 40.6575364 ] } },
{ "type": "Feature", "properties": { "canopy_radius_m": 6.0, "height_m": null }, "geometry": { "type": "Point", "coordinates": [ -73.9885591, 40.6574234 ] } },
{ "type": "Feature", "properties": { "canopy_radius_m": 6.0, "height_m": null }, "geometry": { "type": "Point", "coordinates": [ -73.9881314, 40.657408 ] } },
{ "type": "Feature", "properties": { "canopy_radius_m": 6.0, "height_m": null }, "geometry": { "type": "Point", "coordinates": [ -73.986256, 40.6469337 ] } },
{ "type": "Feature", "properties": { "canopy_radius_m": 6.0, "height_m": null }, "geometry": { "type": "Point", "coordinates": [ -73.9818551, 40.6528215 ] } },
{ "type": "Feature", "properties": { "canopy_radius_m": 6.0, "height_m": null }, "geometry": { "type": "Point", "coordinates": [ -73.9817156, 40.6524688 ] } },
{ "type": "Feature", "properties": { "canopy_radius_m": 6.0, "height_m": null }, "geometry": { "type": "Point", "coordinates": [ -73.9816512, 40.65223 ] } },
{ "type": "Feature", "properties": { "canopy_radius_m": 6.0, "height_m": null }, "geometry": { "type": "Point", "coordinates": [ -73.9814492, 40.6516453 ] } },
{ "type": "Feature", "properties": { "canopy_radius_m": 6.0, "height_m": null }, "geometry": { "type": "Point", "coordinates": [ -73.981349, 40.6510837 ] } },
{ "type": "Feature", "properties": { "canopy_radius_m": 6.0, "height_m": null }, "geometry": { "type": "Point", "coordinates": [ -73.9812668, 40.6505844 ] } },
{ "type": "Feature", "properties": { "canopy_radius_m": 6.0, "height_m": null }, "geometry": { "type": "Point", "coordinates": [ -73.9812149, 40.6503565 ] } },
{ "type": "Feature", "properties": { "canopy_radius_m": 6.0, "height_m": null }, "geometry": { "type": "Point", "coordinates": [ -73.9811666, 40.6501245 ] } },
{ "type": "Feature", "properties": { "canopy_radius_m": 6.0, "height_m": null }, "geometry": { "type": "Point", "coordinates": [ -73.9810647, 40.6494991 ] } },
{ "type": "Feature", "properties": { "canopy_radius_m": 6.0, "height_m": null }, "geometry": { "type": "Point", "coordinates": [ -73.9818497, 40.6494163 ] } },
{ "type": "Feature", "properties": { "canopy_radius_m": 6.0, "height_m": null }, "geometry": { "type": "Point", "coordinates": [ -73.9840634, 40.6493214 ] } },
{ "type": "Feature", "properties": { "canopy_radius_m": 6.0, "height_m": null }, "geometry": { "type": "Point", "coordinates": [ -73.9848824, 40.6484015 ] } },
{ "type": "Feature", "properties": { "canopy_radius_m": 6.0, "height_m": null }, "geometry": { "type": "Point", "coordinates": [ -73.9849718, 40.6568749 ] } },
{ "type": "Feature", "properties": { "canopy_radius_m": 6.0, "height_m": null }, "geometry": { "type": "Point", "coordinates": [ -73.9854278, 40.657191 ] } },
{ "type": "Feature", "properties": { "canopy_radius_m": 6.0, "height_m": null }, "geometry": { "type": "Point", "coordinates": [ -73.9857014, 40.657309 ] } },
{ "type": "Feature", "properties": { "canopy_radius_m": 6.0, "height_m": null }, "geometry": { "type": "Point", "coordinates": [ -73.9882477, 40.6560474 ] } },
{ "type": "Feature", "properties": { "canopy_radius_m": 6.0, "height_m": null }, "geometry": { "type": "Point", "coordinates": [ -73.9879294, 40.6555387 ] } },
{ "type": "Feature", "properties": { "canopy_radius_m": 6.0, "height_m": null }, "geometry": { "type": "Point", "coordinates": [ -73.9879008, 40.6558155 ] } },
{ "type": "Feature", "properties": { "canopy_radius_m": 6.0, "height_m": null }, "geometry": { "type": "Point", "coordinates": [ -73.9894046, 40.6558345 ] } },
{ "type": "Feature", "properties": { "canopy_radius_m": 6.0, "height_m": null }, "geometry": { "type": "Point", "coordinates": [ -73.989308, 40.655981 ] } },
{ "type": "Feature", "properties": { "canopy_radius_m": 6.0, "height_m": null }, "geometry": { "type": "Point", "coordinates": [ -73.9884765, 40.6545905 ] } },
{ "type": "Feature", "properties": { "canopy_radius_m": 6.0, "height_m": null }, "geometry": { "type": "Point", "coordinates": [ -73.9882351, 40.6547411 ] } },
{ "type": "Feature", "properties": { "canopy_radius_m": 6.0, "height_m": null }, "geometry": { "type": "Point", "coordinates": [ -73.9881314, 40.6549473 ] } },
{ "type": "Feature", "properties": { "canopy_radius_m": 6.0, "height_m": null }, "geometry": { "type": "Point", "coordinates": [ -73.987595, 40.6549934 ] } },
{ "type": "Feature", "properties": { "canopy_radius_m": 6.0, "height_m": null }, "geometry": { "type": "Point", "coordinates": [ -73.9891879, 40.6478217 ] } },
{ "type": "Feature", "properties": { "canopy_radius_m": 6.0, "height_m": null }, "geometry": { "type": "Point", "coordinates": [ -73.9887781, 40.6476311 ] } },
{ "type": "Feature", "properties": { "canopy_radius_m": 6.0, "height_m": null }, "geometry": { "type": "Point", "coordinates": [ -73.9880217, 40.6485444 ] } },
{ "type": "Feature", "properties": { "canopy_radius_m": 6.0, "height_m": null }, "geometry": { "type": "Point", "coordinates": [ -73.9879249, 40.6483507 ] } },
{ "type": "Feature", "properties": { "canopy_radius_m": 6.0, "height_m": null }, "geometry": { "type": "Point", "coordinates": [ -73.9882098, 40.6493742 ] } },
{ "type": "Feature", "properties": { "canopy_radius_m": 6.0, "height_m": null }, "geometry": { "type": "Point", "coordinates": [ -73.9930431, 40.6522551 ] } },
{ "type": "Feature", "properties": { "canopy_radius_m": 6.0, "height_m": null }, "geometry": { "type": "Point", "coordinates": [ -73.9976055, 40.6500186 ] } },
{ "type": "Feature", "properties": { "canopy_radius_m": 6.0, "height_m": null }, "geometry": { "type": "Point", "coordinates": [ -73.9971367, 40.6509063 ] } },
{ "type": "Feature", "properties": { "canopy_radius_m": 6.0, "height_m": null }, "geometry": { "type": "Point", "coordinates": [ -73.9956684, 40.6572111 ] } },
{ "type": "Feature", "properties": { "canopy_radius_m": 6.0, "height_m": null }, "geometry": { "type": "Point", "coordinates": [ -73.98913, 40.6551093 ] } },
{ "type": "Feature", "properties": { "canopy_radius_m": 6.0, "height_m": null }, "geometry": { "type": "Point", "coordinates": [ -73.9890154, 40.6559648 ] } },
{ "type": "Feature", "properties": { "canopy_radius_m": 6.0, "height_m": null }, "geometry": { "type": "Point", "coordinates": [ -73.9893169, 40.6561147 ] } },
{ "type": "Feature", "properties": { "canopy_radius_m": 6.0, "height_m": null }, "geometry": { "type": "Point", "coordinates": [ -73.9832854, 40.6471663 ] } },
{ "type": "Feature", "properties": { "canopy_radius_m": 6.0, "height_m": null }, "geometry": { "type": "Point", "coordinates": [ -73.9841111, 40.6476053 ] } },
{ "type": "Feature", "properties": { "canopy_radius_m": 6.0, "height_m": null }, "geometry": { "type": "Point", "coordinates": [ -73.9839685, 40.6477583 ] } },
{ "type": "Feature", "properties": { "canopy_radius_m": 6.0, "height_m": null }, "geometry": { "type": "Point", "coordinates": [ -73.9885226, 40.6570303 ] } },
{ "type": "Feature", "properties": { "canopy_radius_m": 6.0, "height_m": null }, "geometry": { "type": "Point", "coordinates": [ -73.9934142, 40.6478258 ] } },
{ "type": "Feature", "properties": { "canopy_radius_m": 6.0, "height_m": null }, "geometry": { "type": "Point", "coordinates": [ -73.9932431, 40.647801 ] } },
{ "type": "Feature", "properties": { "canopy_radius_m": 6.0, "height_m": null }, "geometry": { "type": "Point", "coordinates": [ -73.9923035, 40.6471617 ] } },
{ "type": "Feature", "properties": { "canopy_radius_m": 6.0, "height_m": null }, "geometry": { "type": "Point", "coordinates": [ -73.9928124, 40.6470568 ] } },
{ "type": "Feature", "properties": { "canopy_radius_m": 6.0, "height_m": null }, "geometry": { "type": "Point", "coordinates": [ -73.9926614, 40.6469342 ] } },
{ "type": "Feature", "properties": { "canopy_radius_m": 6.0, "height_m": null }, "geometry": { "type": "Point", "coordinates": [ -73.9925548, 40.6468581 ] } },
{ "type": "Feature", "properties": { "canopy_radius_m": 6.0, "height_m": null }, "geometry": { "type": "Point", "coordinates": [ -73.992352, 40.6466907 ] } },
{ "type": "Feature", "properties": { "canopy_radius_m": 6.0, "height_m": null }, "geometry": { "type": "Point", "coordinates": [ -73.9920564, 40.6464552 ] } },
{ "type": "Feature", "properties": { "canopy_radius_m": 6.0, "height_m": null }, "geometry": { "type": "Point", "coordinates": [ -73.99184, 40.6463014 ] } },
{ "type": "Feature", "properties": { "canopy_radius_m": 6.0, "height_m": null }, "geometry": { "type": "Point", "coordinates": [ -73.9909668, 40.6459689 ] } },
{ "type": "Feature", "properties": { "canopy_radius_m": 6.0, "height_m": null }, "geometry": { "type": "Point", "coordinates": [ -73.988397, 40.6453208 ] } },
{ "type": "Feature", "properties": { "canopy_radius_m": 6.0, "height_m": null }, "geometry": { "type": "Point", "coordinates": [ -73.9863698, 40.6498549 ] } },
{ "type": "Feature", "properties": { "canopy_radius_m": 6.0, "height_m": null }, "geometry": { "type": "Point", "coordinates": [ -73.9857828, 40.6561669 ] } },
{ "type": "Feature", "properties": { "canopy_radius_m": 6.0, "height_m": null }, "geometry": { "type": "Point", "coordinates": [ -73.9941819, 40.6580775 ] } },
{ "type": "Feature", "properties": { "canopy_radius_m": 6.0, "height_m": null }, "geometry": { "type": "Point", "coordinates": [ -73.9848099, 40.6470023 ] } },
{ "type": "Feature", "properties": { "canopy_radius_m": 6.0, "height_m": null }, "geometry": { "type": "Point", "coordinates": [ -73.9852909, 40.6469873 ] } },
{ "type": "Feature", "properties": { "canopy_radius_m": 6.0, "height_m": null }, "geometry": { "type": "Point", "coordinates": [ -73.9890871, 40.6497298 ] } },
{ "type": "Feature", "properties": { "canopy_radius_m": 6.0, "height_m": null }, "geometry": { "type": "Point", "coordinates": [ -73.9894626, 40.6494462 ] } },
{ "type": "Feature", "properties": { "canopy_radius_m": 6.0, "height_m": null }, "geometry": { "type": "Point", "coordinates": [ -73.9898811, 40.649179 ] } },
{ "type": "Feature", "properties": { "canopy_radius_m": 6.0, "height_m": null }, "geometry": { "type": "Point", "coordinates": [ -73.9933805, 40.6495995 ] } },
{ "type": "Feature", "properties": { "canopy_radius_m": 6.0, "height_m": null }, "geometry": { "type": "Point", "coordinates": [ -73.9889146, 40.6570022 ] } },
{ "type": "Feature", "properties": { "canopy_radius_m": 6.0, "height_m": null }, "geometry": { "type": "Point", "coordinates": [ -73.9898643, 40.6456719 ] } },
{ "type": "Feature", "properties": { "canopy_radius_m": 6.0, "height_m": null }, "geometry": { "type": "Point", "coordinates": [ -73.9903417, 40.6460179 ] } },
{ "type": "Feature", "properties": { "canopy_radius_m": 6.0, "height_m": null }, "geometry": { "type": "Point", "coordinates": [ -73.9905957, 40.6459473 ] } },
{ "type": "Feature", "properties": { "canopy_radius_m": 6.0, "height_m": null }, "geometry": { "type": "Point", "coordinates": [ -73.9902291, 40.6456068 ] } },
{ "type": "Feature", "properties": { "canopy_radius_m": 6.0, "height_m": null }, "geometry": { "type": "Point", "coordinates": [ -73.9867115, 40.6563539 ] } },
{ "type": "Feature", "properties": { "canopy_radius_m": 6.0, "height_m": null }, "geometry": { "type": "Point", "coordinates": [ -73.9870627, 40.6560874 ] } },
{ "type": "Feature", "properties": { "canopy_radius_m": 6.0, "height_m": null }, "geometry": { "type": "Point", "coordinates": [ -73.9872198, 40.6560639 ] } },
{ "type": "Feature", "properties": { "canopy_radius_m": 6.0, "height_m": null }, "geometry": { "type": "Point", "coordinates": [ -73.9922979, 40.6514605 ] } },
{ "type": "Feature", "properties": { "canopy_radius_m": 6.0, "height_m": null }, "geometry": { "type": "Point", "coordinates": [ -73.9921422, 40.6514867 ] } },
{ "type": "Feature", "properties": { "canopy_radius_m": 6.0, "height_m": null }, "geometry": { "type": "Point", "coordinates": [ -73.9875376, 40.6557047 ] } },
{ "type": "Feature", "properties": { "canopy_radius_m": 6.0, "height_m": null }, "geometry": { "type": "Point", "coordinates": [ -73.9876436, 40.6557432 ] } },
{ "type": "Feature", "properties": { "canopy_radius_m": 6.0, "height_m": null }, "geometry": { "type": "Point", "coordinates": [ -73.9876915, 40.6557596 ] } },
{ "type": "Feature", "properties": { "canopy_radius_m": 6.0, "height_m": null }, "geometry": { "type": "Point", "coordinates": [ -73.9875183, 40.6559256 ] } },
{ "type": "Feature", "properties": { "canopy_radius_m": 6.0, "height_m": null }, "geometry": { "type": "Point", "coordinates": [ -73.9875108, 40.6558158 ] } },
{ "type": "Feature", "properties": { "canopy_radius_m": 6.0, "height_m": null }, "geometry": { "type": "Point", "coordinates": [ -73.9869154, 40.6576439 ] } },
{ "type": "Feature", "properties": { "canopy_radius_m": 6.0, "height_m": null }, "geometry": { "type": "Point", "coordinates": [ -73.9875542, 40.6581202 ] } },
{ "type": "Feature", "properties": { "canopy_radius_m": 6.0, "height_m": null }, "geometry": { "type": "Point", "coordinates": [ -73.9880106, 40.6577502 ] } },
{ "type": "Feature", "properties": { "canopy_radius_m": 6.0, "height_m": null }, "geometry": { "type": "Point", "coordinates": [ -73.9870339, 40.6546115 ] } },
{ "type": "Feature", "properties": { "canopy_radius_m": 6.0, "height_m": null }, "geometry": { "type": "Point", "coordinates": [ -73.9855752, 40.6521847 ] } },
{ "type": "Feature", "properties": { "canopy_radius_m": 6.0, "height_m": null }, "geometry": { "type": "Point", "coordinates": [ -73.9835107, 40.6501503 ] } },
{ "type": "Feature", "properties": { "canopy_radius_m": 6.0, "height_m": null }, "geometry": { "type": "Point", "coordinates": [ -73.9851417, 40.6465642 ] } },
{ "type": "Feature", "properties": { "canopy_radius_m": 6.0, "height_m": null }, "geometry": { "type": "Point", "coordinates": [ -73.9858367, 40.6467506 ] } },
{ "type": "Feature", "properties": { "canopy_radius_m": 6.0, "height_m": null }, "geometry": { "type": "Point", "coordinates": [ -73.9857145, 40.6467389 ] } },
{ "type": "Feature", "properties": { "canopy_radius_m": 6.0, "height_m": null }, "geometry": { "type": "Point", "coordinates": [ -73.9855371, 40.6467907 ] } },
{ "type": "Feature", "properties": { "canopy_radius_m": 6.0, "height_m": null }, "geometry": { "type": "Point", "coordinates": [ -73.9836074, 40.6475938 ] } },
{ "type": "Feature", "properties": { "canopy_radius_m": 6.0, "height_m": null }, "geometry": { "type": "Point", "coordinates": [ -73.9834741, 40.6477183 ] } },
{ "type": "Feature", "properties": { "canopy_radius_m": 6.0, "height_m": null }, "geometry": { "type": "Point", "coordinates": [ -73.983994, 40.6479623 ] } },
{ "type": "Feature", "properties": { "canopy_radius_m": 6.0, "height_m": null }, "geometry": { "type": "Point", "coordinates": [ -73.9836361, 40.6479774 ] } },
{ "type": "Feature", "properties": { "canopy_radius_m": 6.0, "height_m": null }, "geometry": { "type": "Point", "coordinates": [ -73.9836008, 40.6482673 ] } },
{ "type": "Feature", "properties": { "canopy_radius_m": 6.0, "height_m": null }, "geometry": { "type": "Point", "coordinates": [ -73.9831008, 40.6506849 ] } },
{ "type": "Feature", "properties": { "canopy_radius_m": 6.0, "height_m": null }, "geometry": { "type": "Point", "coordinates": [ -73.9832759, 40.650715 ] } },
{ "type": "Feature", "properties": { "canopy_radius_m": 6.0, "height_m": null }, "geometry": { "type": "Point", "coordinates": [ -73.9836394, 40.6516142 ] } },
{ "type": "Feature", "properties": { "canopy_radius_m": 6.0, "height_m": null }, "geometry": { "type": "Point", "coordinates": [ -73.9967555, 40.6562232 ] } },
{ "type": "Feature", "properties": { "canopy_radius_m": 6.0, "height_m": null }, "geometry": { "type": "Point", "coordinates": [ -73.9966535, 40.6560835 ] } },
{ "type": "Feature", "properties": { "canopy_radius_m": 6.0, "height_m": null }, "geometry": { "type": "Point", "coordinates": [ -73.9968931, 40.6564091 ] } },
{ "type": "Feature", "properties": { "canopy_radius_m": 6.0, "height_m": null }, "geometry": { "type": "Point", "coordinates": [ -73.9965033, 40.6564186 ] } },
{ "type": "Feature", "properties": { "canopy_radius_m": 6.0, "height_m": null }, "geometry": { "type": "Point", "coordinates": [ -73.9960348, 40.656306 ] } },
{ "type": "Feature", "properties": { "canopy_radius_m": 6.0, "height_m": null }, "geometry": { "type": "Point", "coordinates": [ -73.9959347, 40.6561676 ] } },
{ "type": "Feature", "properties": { "canopy_radius_m": 6.0, "height_m": null }, "geometry": { "type": "Point", "coordinates": [ -73.9961618, 40.6571457 ] } },
{ "type": "Feature", "properties": { "canopy_radius_m": 6.0, "height_m": null }, "geometry": { "type": "Point", "coordinates": [ -73.9962673, 40.6573017 ] } },
{ "type": "Feature", "properties": { "canopy_radius_m": 6.0, "height_m": null }, "geometry": { "type": "Point", "coordinates": [ -73.9962405, 40.6570222 ] } },
{ "type": "Feature", "properties": { "canopy_radius_m": 6.0, "height_m": null }, "geometry": { "type": "Point", "coordinates": [ -73.9958614, 40.6571375 ] } },
{ "type": "Feature", "properties": { "canopy_radius_m": 6.0, "height_m": null }, "geometry": { "type": "Point", "coordinates": [ -73.9934295, 40.6583557 ] } },
{ "type": "Feature", "properties": { "canopy_radius_m": 6.0, "height_m": null }, "geometry": { "type": "Point", "coordinates": [ -73.9933812, 40.6582688 ] } },
{ "type": "Feature", "properties": { "canopy_radius_m": 6.0, "height_m": null }, "geometry": { "type": "Point", "coordinates": [ -73.9925873, 40.6580003 ] } },
{ "type": "Feature", "properties": { "canopy_radius_m": 6.0, "height_m": null }, "geometry": { "type": "Point", "coordinates": [ -73.989492, 40.6554391 ] } },
{ "type": "Feature", "properties": { "canopy_radius_m": 6.0, "height_m": null }, "geometry": { "type": "Point", "coordinates": [ -73.9892757, 40.6553767 ] } },
{ "type": "Feature", "properties": { "canopy_radius_m": 6.0, "height_m": null }, "geometry": { "type": "Point", "coordinates": [ -73.9890611, 40.6556141 ] } },
{ "type": "Feature", "properties": { "canopy_radius_m": 6.0, "height_m": null }, "geometry": { "type": "Point", "coordinates": [ -73.9827382, 40.6534382 ] } },
{ "type": "Feature", "properties": { "canopy_radius_m": 6.0, "height_m": null }, "geometry": { "type": "Point", "coordinates": [ -73.9817333, 40.6501796 ] } },
{ "type": "Feature", "properties": { "canopy_radius_m": 6.0, "height_m": null }, "geometry": { "type": "Point", "coordinates": [ -73.9816796, 40.6495636 ] } },
{ "type": "Feature", "properties": { "canopy_radius_m": 6.0, "height_m": null }, "geometry": { "type": "Point", "coordinates": [ -73.981322, 40.6494198 ] } },
{ "type": "Feature", "properties": { "canopy_radius_m": 6.0, "height_m": null }, "geometry": { "type": "Point", "coordinates": [ -73.9852072, 40.6505784 ] } },
{ "type": "Feature", "properties": { "canopy_radius_m": 6.0, "height_m": null }, "geometry": { "type": "Point", "coordinates": [ -73.9885412, 40.6515901 ] } },
{ "type": "Feature", "properties": { "canopy_radius_m": 6.0, "height_m": null }, "geometry": { "type": "Point", "coordinates": [ -73.992948, 40.6516555 ] } },
{ "type": "Feature", "properties": { "canopy_radius_m": 6.0, "height_m": null }, "geometry": { "type": "Point", "coordinates": [ -73.9933143, 40.6494595 ] } },
{ "type": "Feature", "properties": { "canopy_radius_m": 6.0, "height_m": null }, "geometry": { "type": "Point", "coordinates": [ -73.9920654, 40.646893 ] } },
{ "type": "Feature", "properties": { "canopy_radius_m": 6.0, "height_m": null }, "geometry": { "type": "Point", "coordinates": [ -73.9903586, 40.6469181 ] } },
{ "type": "Feature", "properties": { "canopy_radius_m": 6.0, "height_m": null }, "geometry": { "type": "Point", "coordinates": [ -73.9895805, 40.6468981 ] } },
{ "type": "Feature", "properties": { "canopy_radius_m": 6.0, "height_m": null }, "geometry": { "type": "Point", "coordinates": [ -73.9835318, 40.6515695 ] } },
{ "type": "Feature", "properties": { "canopy_radius_m": 6.0, "height_m": null }, "geometry": { "type": "Point", "coordinates": [ -73.9848225, 40.6567136 ] } },
{ "type": "Feature", "properties": { "canopy_radius_m": 6.0, "height_m": null }, "geometry": { "type": "Point", "coordinates": [ -73.9824689, 40.653543 ] } },
{ "type": "Feature", "properties": { "canopy_radius_m": 6.0, "height_m": null }, "geometry": { "type": "Point", "coordinates": [ -73.9824476, 40.6537203 ] } },
{ "type": "Feature", "properties": { "canopy_radius_m": 6.0, "height_m": null }, "geometry": { "type": "Point", "coordinates": [ -73.9868191, 40.6539029 ] } },
{ "type": "Feature", "properties": { "canopy_radius_m": 6.0, "height_m": null }, "geometry": { "type": "Point", "coordinates": [ -73.9869479, 40.6542488 ] } },
{ "type": "Feature", "properties": { "canopy_radius_m": 6.0, "height_m": null }, "geometry": { "type": "Point", "coordinates": [ -73.9880655, 40.6540385 ] } },
{ "type": "Feature", "properties": { "canopy_radius_m": 6.0, "height_m": null }, "geometry": { "type": "Point", "coordinates": [ -73.9888218, 40.6522505 ] } },
{ "type": "Feature", "properties": { "canopy_radius_m": 6.0, "height_m": null }, "geometry": { "type": "Point", "coordinates": [ -73.9887289, 40.6478671 ] } },
{ "type": "Feature", "properties": { "canopy_radius_m": 6.0, "height_m": null }, "geometry": { "type": "Point", "coordinates": [ -73.9874843, 40.6473814 ] } },
{ "type": "Feature", "properties": { "canopy_radius_m": 6.0, "height_m": null }, "geometry": { "type": "Point", "coordinates": [ -73.9882336, 40.6470721 ] } },
{ "type": "Feature", "properties": { "canopy_radius_m": 6.0, "height_m": null }, "geometry": { "type": "Point", "coordinates": [ -73.9897016, 40.6451971 ] } },
{ "type": "Feature", "properties": { "canopy_radius_m": 6.0, "height_m": null }, "geometry": { "type": "Point", "coordinates": [ -73.9893118, 40.6451916 ] } },
{ "type": "Feature", "properties": { "canopy_radius_m": 6.0, "height_m": null }, "geometry": { "type": "Point", "coordinates": [ -73.9915309, 40.6498099 ] } },
{ "type": "Feature", "properties": { "canopy_radius_m": 6.0, "height_m": null }, "geometry": { "type": "Point", "coordinates": [ -73.9936887, 40.650219 ] } },
{ "type": "Feature", "properties": { "canopy_radius_m": 6.0, "height_m": null }, "geometry": { "type": "Point", "coordinates": [ -73.9938894, 40.6502061 ] } },
{ "type": "Feature", "properties": { "canopy_radius_m": 6.0, "height_m": null }, "geometry": { "type": "Point", "coordinates": [ -73.9939292, 40.650315 ] } },
{ "type": "Feature", "properties": { "canopy_radius_m": 6.0, "height_m": null }, "geometry": { "type": "Point", "coordinates": [ -73.9975673, 40.6504632 ] } },
{ "type": "Feature", "properties": { "canopy_radius_m": 6.0, "height_m": null }, "geometry": { "type": "Point", "coordinates": [ -73.9977121, 40.6504866 ] } },
{ "type": "Feature", "properties": { "canopy_radius_m": 6.0, "height_m": null }, "geometry": { "type": "Point", "coordinates": [ -73.9978369, 40.6505073 ] } },
{ "type": "Feature", "properties": { "canopy_radius_m": 6.0, "height_m": null }, "geometry": { "type": "Point", "coordinates": [ -73.9979714, 40.6505639 ] } },
{ "type": "Feature", "properties": { "canopy_radius_m": 6.0, "height_m": null }, "geometry": { "type": "Point", "coordinates": [ -73.9983921, 40.6509577 ] } },
{ "type": "Feature", "properties": { "canopy_radius_m": 6.0, "height_m": null }, "geometry": { "type": "Point", "coordinates": [ -73.9913181, 40.6458549 ] } },
{ "type": "Feature", "properties": { "canopy_radius_m": 6.0, "height_m": null }, "geometry": { "type": "Point", "coordinates": [ -73.98093, 40.6482895 ] } },
{ "type": "Feature", "properties": { "canopy_radius_m": 6.0, "height_m": null }, "geometry": { "type": "Point", "coordinates": [ -73.981721, 40.6498153 ] } },
{ "type": "Feature", "properties": { "canopy_radius_m": 6.0, "height_m": null }, "geometry": { "type": "Point", "coordinates": [ -73.9854568, 40.6560115 ] } },
{ "type": "Feature", "properties": { "canopy_radius_m": 6.0, "height_m": null }, "geometry": { "type": "Point", "coordinates": [ -73.9882192, 40.6580546 ] } },
{ "type": "Feature", "properties": { "canopy_radius_m": 6.0, "height_m": null }, "geometry": { "type": "Point", "coordinates": [ -73.9880835, 40.6581055 ] } },
{ "type": "Feature", "properties": { "canopy_radius_m": 6.0, "height_m": null }, "geometry": { "type": "Point", "coordinates": [ -73.9912145, 40.6500106 ] } },
{ "type": "Feature", "properties": { "canopy_radius_m": 6.0, "height_m": null }, "geometry": { "type": "Point", "coordinates": [ -73.9902739, 40.6485054 ] } },
{ "type": "Feature", "properties": { "canopy_radius_m": 6.0, "height_m": null }, "geometry": { "type": "Point", "coordinates": [ -73.9879757, 40.6466962 ] } },
{ "type": "Feature", "properties": { "canopy_radius_m": 6.0, "height_m": null }, "geometry": { "type": "Point", "coordinates": [ -73.9869153, 40.6465948 ] } },
{ "type": "Feature", "properties": { "canopy_radius_m": 6.0, "height_m": null }, "geometry": { "type": "Point", "coordinates": [ -73.9870016, 40.6465086 ] } },
{ "type": "Feature", "properties": { "canopy_radius_m": 6.0, "height_m": null }, "geometry": { "type": "Point", "coordinates": [ -73.986171, 40.6465093 ] } },
{ "type": "Feature", "properties": { "canopy_radius_m": 6.0, "height_m": null }, "geometry": { "type": "Point", "coordinates": [ -73.9861231, 40.6464042 ] } },
{ "type": "Feature", "properties": { "canopy_radius_m": 6.0, "height_m": null }, "geometry": { "type": "Point", "coordinates": [ -73.9922405, 40.6532863 ] } },
{ "type": "Feature", "properties": { "canopy_radius_m": 6.0, "height_m": null }, "geometry": { "type": "Point", "coordinates": [ -74.0009868, 40.6537988 ] } },
{ "type": "Feature", "properties": { "canopy_radius_m": 6.0, "height_m": null }, "geometry": { "type": "Point", "coordinates": [ -73.9822744, 40.6480543 ] } },
{ "type": "Feature", "properties": { "canopy_radius_m": 6.0, "height_m": null }, "geometry": { "type": "Point", "coordinates": [ -73.9822993, 40.6479565 ] } },
{ "type": "Feature", "properties": { "canopy_radius_m": 6.0, "height_m": null }, "geometry": { "type": "Point", "coordinates": [ -73.9816716, 40.6485905 ] } },
{ "type": "Feature", "properties": { "canopy_radius_m": 6.0, "height_m": null }, "geometry": { "type": "Point", "coordinates": [ -73.9815069, 40.6498849 ] } },
{ "type": "Feature", "properties": { "canopy_radius_m": 6.0, "height_m": null }, "geometry": { "type": "Point", "coordinates": [ -73.9865879, 40.6577079 ] } },
{ "type": "Feature", "properties": { "canopy_radius_m": 6.0, "height_m": null }, "geometry": { "type": "Point", "coordinates": [ -73.9880704, 40.6584432 ] } },
{ "type": "Feature", "properties": { "canopy_radius_m": 6.0, "height_m": null }, "geometry": { "type": "Point", "coordinates": [ -73.9808713, 40.6484588 ] } },
{ "type": "Feature", "properties": { "canopy_radius_m": 6.0, "height_m": null }, "geometry": { "type": "Point", "coordinates": [ -73.9810026, 40.6476746 ] } },
{ "type": "Feature", "properties": { "canopy_radius_m": 6.0, "height_m": null }, "geometry": { "type": "Point", "coordinates": [ -73.9881134, 40.6498371 ] } },
{ "type": "Feature", "properties": { "canopy_radius_m": 6.0, "height_m": null }, "geometry": { "type": "Point", "coordinates": [ -73.987892, 40.652205 ] } },
{ "type": "Feature", "properties": { "canopy_radius_m": 6.0, "height_m": null }, "geometry": { "type": "Point", "coordinates": [ -73.9896576, 40.6497723 ] } }
]
}
